RADUGA 1 [-]            
1 08513U 75123A   23002.88919956 -.00000003  00000+0  00000+0 0  9999
2 08513   6.0490 285.8135 0006666 222.3227 342.1224  1.00290562182299
RADUGA 2 [-]            
1 09416U 76092A   23002.82094936 -.00000168  00000+0  00000+0 0  9996
2 09416   6.7137 287.8329 0027658   2.6510 192.4599  1.00283808116699
RADUGA 3 [-]            
1 10159U 77071A   23002.88972255 -.00000006  00000+0  00000+0 0  9996
2 10159   7.3312 290.4816 0008695 244.4898 318.0571  1.00187579164397
RADUGA 4 [-]            
1 10987U 78073A   23002.88728192  .00000072  00000+0  00000+0 0  9999
2 10987   7.9619 294.0616 0008808   2.2826 183.0155  1.00340293106946
RADUGA 5 [-]            
1 11343U 79035A   23002.81955472 -.00000090  00000+0  00000+0 0  9992
2 11343   8.4241 296.8749 0006058 175.2285   2.8458  1.00247753116708
RADUGA 6 [-]            
1 11708U 80016A   23002.82243117 -.00000242  00000+0  00000+0 0  9994
2 11708   8.7897 300.0038 0002319 207.4162 343.2065  1.00332114109513
RADUGA 7 [-]            
1 12003U 80081A   23003.15758056 -.00000174  00000+0  00000+0 0  9999
2 12003   8.9764 301.9826 0009674 271.1339 280.6978  1.00265348110778
RADUGA 8 [-]            
1 12351U 81027A   23002.68956955 -.00000203  00000+0  00000+0 0  9994
2 12351   9.3097 302.5603 0081575 233.6223 320.2152  1.00351685109888
RADUGA 9 [-]            
1 12618U 81069A   23002.82182102 -.00000224  00000+0  00000+0 0  9990
2 12618   9.5363 305.5867 0003180 151.7474  30.0878  1.00349709115681
RADUGA 10 [-]           
1 12897U 81102A   23002.82094936 -.00000166  00000+0  00000+0 0  9999
2 12897   9.6234 306.5840 0005213 185.5400 350.3653  1.00263060104696
RADUGA 11 [-]           
1 13669U 82113A   23002.65958479 -.00000159  00000+0  00000+0 0  9994
2 13669  11.7049 320.5050 0038273 258.4392 115.8289  0.97709978109213
RADUGA 12 [-]           
1 13974U 83028A   23001.88642080 -.00000086  00000+0  00000+0 0  9990
2 13974  10.7976 316.4741 0001652  96.3016  82.1650  1.00295303156727
RADUGA 13 [-]           
1 14307U 83088A   23003.24557008 -.00000116  00000+0  00000+0 0  9998
2 14307  11.9593 322.0343 0015452  42.8704 130.3921  0.98174064106559
RADUGA 14 [-]           
1 14725U 84016A   23003.39405920 -.00000136  00000+0  00000+0 0  9997
2 14725  11.0141 320.2772 0004322 139.9766 225.6315  1.00249188105445
RADUGA 15 [-]           
1 15057U 84063A   23002.75773257 -.00000341  00000+0  00000+0 0  9996
2 15057  11.1406 321.2690 0005072 161.9575  19.0862  1.00247940128457
RADUGA 16 [-]           
1 15946U 85070A   23003.09022958  .00000122  00000+0  00000+0 0  9991
2 15946  11.6226 325.9671 0001704 170.3984 204.9245  1.00338629109572
RADUGA 17 [-]           
1 16250U 85107A   23003.10006185  .00000089  00000+0  00000+0 0  9999
2 16250  11.7506 327.3782 0013033 188.8834 206.5242  1.00138821139174
RADUGA 18 [-]           
1 16497U 86007A   23002.92641902  .00000022  00000+0  00000+0 0  9990
2 16497  12.5679 330.1077 0074564 168.9874 191.1388  0.98810791133459
RADUGA 19 [-]           
1 17046U 86082A   23002.52665817 -.00000015  00000+0  00000+0 0  9994
2 17046  13.0149 334.0707 0012764 153.2377 212.1932  0.98459230130497
RADUGA 20 [-]           
1 17611U 87028A   23003.22774837 -.00000140  00000+0  00000+0 0  9993
2 17611  15.0410 337.5653 0030366 142.2234  31.0442  0.95961829126199
RADUGA 21 [-]           
1 18631U 87100A   23002.56785455  .00000064  00000+0  00000+0 0  9995
2 18631  13.1108 334.8496 0003311 135.0334  60.7595  1.00342039128431
RADUGA 22 [-]           
1 19596U 88095A   23002.39563306 -.00000243  00000+0  00000+0 0  9990
2 19596  13.1136 339.1983 0007243 143.0145 214.8085  1.00165581108999
RADUGA 23 [-]           
1 19928U 89030A   23002.96276682 -.00000138  00000+0  00000+0 0  9993
2 19928  13.2717 341.0165 0021219 167.9734  16.4635  1.00365260122197
RADUGA-1 1 [-]          
1 20083U 89048A   23003.02970953  .00000018  00000+0  00000+0 0  9992
2 20083  14.0388 344.1019 0022374 119.0605  62.5303  0.98707159118815
RADUGA 24 [-]           
1 20367U 89098A   23002.52613517  .00000112  00000+0  00000+0 0  9991
2 20367  13.8588 343.2569 0001901 146.9181 206.2956  1.00256763120313
RADUGA 25 [-]           
1 20499U 90016A   23003.49926735 -.00000058  00000+0  00000+0 0  9995
2 20499  13.6296 343.9272 0004835 147.9260  40.3318  1.00165005120305
RADUGA 26 [-]           
1 21016U 90112A   23003.43591171 -.00000220  00000+0  00000+0 0  9995
2 21016  13.9619 347.1792 0007132  96.3795 262.5512  1.00314880117609
RADUGA-1 2 [-]          
1 21038U 90116A   23002.74146536  .00000030  00000+0  00000+0 0  9995
2 21038  14.0018 347.2544 0008444 106.2615 333.8857  1.00316318 34692
RADUGA 27 [-]           
1 21132U 91014A   23003.09910644  .00000129  00000+0  00000+0 0  9995
2 21132  14.5090 346.7478 0003195  98.7870  86.2489  1.00336312116651
RADUGA 28 [-]           
1 21821U 91087A   23003.03136566  .00000031  00000+0  00000+0 0  9999
2 21821  14.2952 350.5230 0006997 129.3144  54.8434  1.00187866113709
RADUGA 29 [-]           
1 22557U 93013A   23002.46093576 -.00000159  00000+0  00000+0 0  9998
2 22557  14.5256 354.7040 0006671 122.2879 228.4087  1.00385812109021
RADUGA 30 [-]           
1 22836U 93062A   23003.03310896 -.00000061  00000+0  00000+0 0  9995
2 22836  14.5775 356.6768 0001408 350.3991 197.3171  1.00265012107123
RADUGA-1 3 [-]          
1 22981U 94008A   23002.53241105 -.00000119  00000+0  00000+0 0  9991
2 22981  14.6616 357.8277 0003298 108.5980 264.4744  1.00214636105831
RADUGA 31 [-]           
1 23010U 94012A   23002.96485877 -.00000233  00000+0  00000+0 0  9990
2 23010  14.6316 357.8213 0005386  98.7902  80.1552  1.00334190105698
RADUGA 32 [-]           
1 23448U 94087A   23002.53127792 -.00000073  00000+0  00000+0 0  9991
2 23448  14.6300   0.5469 0005000 206.5898 157.2559  1.00265036120295
RADUGA-1 4 [-]          
1 25642U 99010A   23003.10345111 -.00000018  00000+0  00000+0 0  9990
2 25642  15.2661  12.0664 0002525 253.6985 296.9166  1.00351047 87323
RADUGA-1 5 [-]          
1 26477U 00049A   23002.74146536  .00000025  00000+0  00000+0 0  9997
2 26477  13.2422  17.0863 0004871  63.3239 347.1938  1.00329402 81772
RADUGA-1 6 [-]          
1 26936U 01045A   23002.53624632 -.00000067  00000+0  00000+0 0  9996
2 26936  13.4456  23.4484 0016074 169.4258 198.5734  0.97743576 76276
RADUGA-1 7 [-]          
1 28194U 04010A   23003.03860036 -.00000284  00000+0  00000+0 0  9996
2 28194  12.1984  30.2370 0002016 190.1691 353.4335  1.00177336 68752
RADUGA-1M 1 [-]         
1 32373U 07058A   23002.26271537 -.00000146  00000+0  00000+0 0  9998
2 32373   7.3358  62.6561 0001624 326.0952  92.7620  0.99394943 39853
RADUGA-1 8 [-]          
1 34264U 09010A   23002.68313293 -.00000315  00000+0  00000+0 0  9999
2 34264   9.6170  52.5756 0013735   3.7553  75.1042  0.99830997 50587
RADUGA-1M 2 [+]         
1 36358U 10002A   23003.25257847 -.00000172  00000+0  00000+0 0  9995
2 36358   0.3529  98.3855 0002557 235.7387 304.3751  1.00273675 47362
RADUGA-1M 3 [+]         
1 39375U 13062A   23003.09787255  .00000164  00000+0  00000+0 0  9999
2 39375   2.7421  87.5470 0001594 135.2167 309.8765  1.00273181 33489
